NORAD_CAT_ID,OBJECT_NAME,OBJECT_TYPE,EPOCH,MEAN_MOTION,ECCENTRICITY,INCLINATION,RA_OF_ASC_NODE,ARG_OF_PERICENTER,MEAN_ANOMALY,BSTAR,MEAN_MOTION_DOT,MEAN_MOTION_DDOT,TLE_LINE0,TLE_LINE1,TLE_LINE2,SEMIMAJOR_AXIS,PERIOD,APOGEE,PERIGEE,DECAYED
54760.0,STARLINK-5220,PAYLOAD,2023-03-25 19:49:52,15.08729951,0.0001466,53.2166,212.007,92.0703,268.0457,0.0019127,0.00030192,0.0,0 STARLINK-5220,1 54760U 22175C   23084.82630625  .00030192  00000-0  19127-2 0  9995,2 54760  53.2166 212.0070 0001466  92.0703 268.0457 15.08729951 14731,6918.217,95.445,541.096,539.068,0.0
54760.0,STARLINK-5220,PAYLOAD,2023-03-26 11:43:43,15.08872479,0.0001512,53.2172,209.0345,51.7522,308.3606,0.0030837,0.00049176,0.0,0 STARLINK-5220,1 54760U 22175C   23085.48870273  .00049176  00000-0  30837-2 0  9996,2 54760  53.2172 209.0345 0001512  51.7522 308.3606 15.08872479 14831,6917.781,95.436,540.692,538.6,0.0
54760.0,STARLINK-5220,PAYLOAD,2023-03-26 19:40:38,15.08922271,0.0001922,53.2168,207.5481,51.0723,309.044,0.0029502,0.00047085,0.0,0 STARLINK-5220,1 54760U 22175C   23085.81988705  .00047085  00000-0  29502-2 0  9997,2 54760  53.2168 207.5481 0001922  51.0723 309.0440 15.08922271 14886,6917.629,95.432,540.823,538.164,0.0
54760.0,STARLINK-5220,PAYLOAD,2023-03-27 13:09:52,15.0885885,0.0001099,53.2167,204.2759,94.2922,265.8195,0.0019103,0.00030261,0.0,0 STARLINK-5220,1 54760U 22175C   23086.54852636  .00030261  00000-0  19103-2 0  9995,2 54760  53.2167 204.2759 0001099  94.2922 265.8195 15.08858850 14991,6917.823,95.436,540.448,538.928,0.0
54760.0,STARLINK-5220,PAYLOAD,2023-03-27 19:31:24,15.08874972,0.0001183,53.2169,203.0862,90.8518,269.261,0.0023792,0.00037817,0.0,0 STARLINK-5220,1 54760U 22175C   23086.81348271  .00037817  00000-0  23792-2 0  9993,2 54760  53.2169 203.0862 0001183  90.8518 269.2610 15.08874972 17190,6917.773,95.435,540.457,538.82,0.0
54760.0,STARLINK-5220,PAYLOAD,2023-03-28 13:00:39,15.0886073,0.0001083,53.2164,199.8146,112.2157,247.895,0.0022296,0.00035395,0.0,0 STARLINK-5220,1 54760U 22175C   23087.54212506  .00035395  00000-0  22296-2 0  9992,2 54760  53.2164 199.8146 0001083 112.2157 247.8950 15.08860730 17308,6917.817,95.436,540.431,538.933,0.0
54760.0,STARLINK-5220,PAYLOAD,2023-03-28 16:11:25,15.08870336,0.0001046,53.2163,199.2203,102.8218,257.2891,0.0026876,0.00042781,0.0,0 STARLINK-5220,1 54760U 22175C   23087.67460356  .00042781  00000-0  26876-2 0  9999,2 54760  53.2163 199.2203 0001046 102.8218 257.2891 15.08870336 15161,6917.788,95.436,540.376,538.929,0.0
54760.0,STARLINK-5220,PAYLOAD,2023-03-28 19:22:11,15.08886577,0.0001072,53.2162,198.625,103.5702,256.541,0.0030413,0.00048509,0.0,0 STARLINK-5220,1 54760U 22175C   23087.80707973  .00048509  00000-0  30413-2 0  9999,2 54760  53.2162 198.6250 0001072 103.5702 256.5410 15.08886577 17345,6917.738,95.435,540.345,538.861,0.0
54760.0,STARLINK-5220,PAYLOAD,2023-03-29 00:08:21,15.08848746,8.86e-05,53.2167,197.7354,95.0595,265.0498,0.00044752,6.843e-05,0.0,0 STARLINK-5220,1 54760U 22175C   23088.00580278  .00006843  00000-0  44752-3 0  9996,2 54760  53.2167 197.7354 0000886  95.0595 265.0498 15.08848746 15213,6917.854,95.437,540.332,539.106,0.0
54760.0,STARLINK-5220,PAYLOAD,2023-03-29 12:51:26,15.08849024,9.61e-05,53.2162,195.3555,89.4611,270.6491,0.0019162,0.00030347,0.0,0 STARLINK-5220,1 54760U 22175C   23088.53572707  .00030347  00000-0  19162-2 0  9994,2 54760  53.2162 195.3555 0000961  89.4611 270.6491 15.08849024 15298,6917.853,95.437,540.383,539.053,0.0
54760.0,STARLINK-5220,PAYLOAD,2023-03-29 19:12:59,15.08872837,9.57e-05,53.2154,194.1658,71.258,288.8516,0.0030992,0.00049426,0.0,0 STARLINK-5220,1 54760U 22175C   23088.80068445  .00049426  00000-0  30992-2 0  9995,2 54760  53.2154 194.1658 0000957  71.2580 288.8516 15.08872837 17490,6917.78,95.435,540.307,538.983,0.0
54760.0,STARLINK-5220,PAYLOAD,2023-03-30 06:20:41,15.08844526,7.87e-05,53.2153,192.0851,74.9942,285.1137,0.0011241,0.0001765,0.0,0 STARLINK-5220,1 54760U 22175C   23089.26436874  .00017650  00000-0  11241-2 0  9991,2 54760  53.2153 192.0851 0000787  74.9942 285.1137 15.08844526 15406,6917.867,95.437,540.276,539.187,0.0
54760.0,STARLINK-5220,PAYLOAD,2023-03-30 19:03:46,15.08888478,0.0001372,53.2152,189.705,65.4691,294.6444,0.0031454,0.00050195,0.0,0 STARLINK-5220,1 54760U 22175C   23089.79428384  .00050195  00000-0  31454-2 0  9995,2 54760  53.2152 189.7050 0001372  65.4691 294.6444 15.08888478 15484,6917.732,95.434,540.546,538.648,0.0
54760.0,STARLINK-5220,PAYLOAD,2023-03-31 06:11:28,15.08854905,7.61e-05,53.2148,187.6252,89.5115,270.5964,0.0010337,0.00016208,0.0,0 STARLINK-5220,1 54760U 22175C   23090.25796387  .00016208  00000-0  10337-2 0  9993,2 54760  53.2148 187.6252 0000761  89.5115 270.5964 15.08854905 15555,6917.835,95.437,540.226,539.173,0.0
54760.0,STARLINK-5220,PAYLOAD,2023-03-31 18:54:32,15.08898765,0.0001227,53.2153,185.2447,81.9827,278.1304,0.0029318,0.00046757,0.0,0 STARLINK-5220,1 54760U 22175C   23090.78787528  .00046757  00000-0  29318-2 0  9999,2 54760  53.2153 185.2447 0001227  81.9827 278.1304 15.08898765 15638,6917.701,95.434,540.415,538.717,0.0
54760.0,STARLINK-5220,PAYLOAD,2023-04-01 06:02:15,15.08807018,0.0001138,53.2152,183.1639,109.3489,250.7626,0.0031768,0.00050588,0.0,0 STARLINK-5220,1 54760U 22175C   23091.25156797  .00050588  00000-0  31768-2 0  9999,2 54760  53.2152 183.1639 0001138 109.3489 250.7626 15.08807018 15709,6917.981,95.44,540.633,539.059,0.0
54760.0,STARLINK-5220,PAYLOAD,2023-04-01 12:23:48,15.08830773,0.0001147,53.2156,181.974,110.0443,250.0673,0.0019859,0.00031451,0.0,0 STARLINK-5220,1 54760U 22175C   23091.51653075  .00031451  00000-0  19859-2 0  9994,2 54760  53.2156 181.9740 0001147 110.0443 250.0673 15.08830773 17904,6917.909,95.438,540.567,538.98,0.0
54760.0,STARLINK-5220,PAYLOAD,2023-04-01 17:09:57,15.08840213,0.0001339,53.2162,181.0826,98.416,261.6984,0.0023154,0.00036754,0.0,0 STARLINK-5220,1 54760U 22175C   23091.71525315  .00036754  00000-0  23154-2 0  9995,2 54760  53.2162 181.0826 0001339  98.4160 261.6984 15.08840213 15771,6917.88,95.438,540.671,538.818,0.0
54760.0,STARLINK-5220,PAYLOAD,2023-04-02 05:53:03,15.08855522,0.0001157,53.2159,178.7032,111.6557,248.4558,0.0021914,0.00034775,0.0,0 STARLINK-5220,1 54760U 22175C   23092.24517513  .00034775  00000-0  21914-2 0  9998,2 54760  53.2159 178.7032 0001157 111.6557 248.4558 15.08855522 15853,6917.833,95.437,540.498,538.898,0.0
54760.0,STARLINK-5220,PAYLOAD,2023-04-02 12:14:35,15.0886633,0.0001026,53.2167,177.5138,109.8795,250.2308,0.0023504,0.00037344,0.0,0 STARLINK-5220,1 54760U 22175C   23092.51013271  .00037344  00000-0  23504-2 0  9992,2 54760  53.2167 177.5138 0001026 109.8795 250.2308 15.08866330 18052,6917.8,95.436,540.375,538.955,0.0
54760.0,STARLINK-5220,PAYLOAD,2023-04-02 17:00:44,15.08877031,0.0001031,53.217,176.6223,100.2814,259.8294,0.0022837,0.00036281,0.0,0 STARLINK-5220,1 54760U 22175C   23092.70884939  .00036281  00000-0  22837-2 0  9997,2 54760  53.2170 176.6223 0001031 100.2814 259.8294 15.08877031 15926,6917.767,95.435,540.345,538.919,0.0
54760.0,STARLINK-5220,PAYLOAD,2023-04-03 05:43:50,15.08848096,0.0001441,53.2165,174.243,103.295,256.8202,0.0012481,0.00019636,0.0,0 STARLINK-5220,1 54760U 22175C   23093.23877611  .00019636  00000-0  12481-2 0  9994,2 54760  53.2165 174.2430 0001441 103.2950 256.8202 15.08848096 16008,6917.856,95.437,540.718,538.724,0.0
54760.0,STARLINK-5220,PAYLOAD,2023-04-03 12:05:23,15.08836594,9.59e-05,53.217,173.0534,84.1662,275.9439,0.0014158,0.00022314,0.0,0 STARLINK-5220,1 54760U 22175C   23093.50373974  .00022314  00000-0  14158-2 0  9997,2 54760  53.2170 173.0534 0000959  84.1662 275.9439 15.08836594 16044,6917.891,95.438,540.419,539.092,0.0
54760.0,STARLINK-5220,PAYLOAD,2023-04-03 13:40:46,15.08840807,9.8e-05,53.217,172.7559,75.7457,284.3644,0.0015884,0.00025082,0.0,0 STARLINK-5220,1 54760U 22175C   23093.56998026  .00025082  00000-0  15884-2 0  9996,2 54760  53.2170 172.7559 0000980  75.7457 284.3644 15.08840807 18214,6917.878,95.438,540.421,539.065,0.0
54760.0,STARLINK-5220,PAYLOAD,2023-04-03 16:51:32,15.08841642,0.0001066,53.2176,172.1622,84.2181,275.8932,0.0013553,0.00021348,0.0,0 STARLINK-5220,1 54760U 22175C   23093.70246053  .00021348  00000-0  13553-2 0  9990,2 54760  53.2176 172.1622 0001066  84.2181 275.8932 15.08841642 18235,6917.875,95.437,540.478,539.003,0.0
54760.0,STARLINK-5220,PAYLOAD,2023-04-04 05:34:37,15.08857666,0.0001142,53.2181,169.7826,86.5868,273.5255,0.0011709,0.00018405,0.0,0 STARLINK-5220,1 54760U 22175C   23094.23237794  .00018405  00000-0  11709-2 0  9992,2 54760  53.2181 169.7826 0001142  86.5868 273.5255 15.08857666 16156,6917.826,95.436,540.481,538.901,0.0
54760.0,STARLINK-5220,PAYLOAD,2023-04-04 10:20:46,15.0886695,0.0001145,53.2177,168.8907,85.3381,274.7742,0.0012332,0.00019407,0.0,0 STARLINK-5220,1 54760U 22175C   23094.43109442  .00019407  00000-0  12332-2 0  9998,2 54760  53.2177 168.8907 0001145  85.3381 274.7742 15.08866950 18344,6917.798,95.436,540.455,538.871,0.0
54760.0,STARLINK-5220,PAYLOAD,2023-04-04 16:42:18,15.08876183,0.0001141,53.2175,167.7009,85.602,274.5102,0.0011555,0.00018168,0.0,0 STARLINK-5220,1 54760U 22175C   23094.69604836  .00018168  00000-0  11555-2 0  9992,2 54760  53.2175 167.7009 0001141  85.6020 274.5102 15.08876183 18383,6917.77,95.435,540.424,538.845,0.0
54760.0,STARLINK-5220,PAYLOAD,2023-04-05 05:25:24,15.08839447,9.37e-05,53.2178,165.3223,83.7433,276.3666,-0.00016351,-2.889e-05,0.0,0 STARLINK-5220,1 54760U 22175C   23095.22597272 -.00002889  00000-0 -16351-3 0  9992,2 54760  53.2178 165.3223 0000937  83.7433 276.3666 15.08839447 16304,6917.882,95.438,540.395,539.099,0.0
54760.0,STARLINK-5220,PAYLOAD,2023-04-05 11:46:56,15.08845763,0.0001144,53.2172,164.1329,87.969,272.1433,0.00034272,5.172e-05,0.0,0 STARLINK-5220,1 54760U 22175C   23095.49093279  .00005172  00000-0  34272-3 0  9997,2 54760  53.2172 164.1329 0001144  87.9690 272.1433 15.08845763 18502,6917.863,95.437,540.519,538.936,0.0
